$$SOE
2460721.500000000, A.D. 2025-Feb-15 00:00:00.0000, -7.964303579387704E+07, -4.903422734756576E+08, -3.302360025611430E+06,
2460728.500000000, A.D. 2025-Feb-22 00:00:00.0000, -7.045239885169646E+07, -4.916435315115005E+08, -3.317520821489722E+06,
2460735.500000000, A.D. 2025-Mar-01 00:00:00.0000, -6.123384642267306E+07, -4.927500632881266E+08, -3.331367007108092E+06,
2460742.500000000, A.D. 2025-Mar-08 00:00:00.0000, -5.199100953038089E+07, -4.936612820065786E+08, -3.343892414726019E+06,
2460749.500000000, A.D. 2025-Mar-15 00:00:00.0000, -4.272753040549358E+07, -4.943766483718364E+08, -3.355091200892776E+06,
2460756.500000000, A.D. 2025-Mar-22 00:00:00.0000, -3.344706484077350E+07, -4.948956703837315E+08, -3.364957603844792E+06,
2460763.500000000, A.D. 2025-Mar-29 00:00:00.0000, -2.415328317605453E+07, -4.952179054200708E+08, -3.373486010027349E+06,
2460770.500000000, A.D. 2025-Apr-05 00:00:00.0000, -1.484986958639600E+07, -4.953429614748582E+08, -3.380671103385806E+06,
2460777.500000000, A.D. 2025-Apr-12 00:00:00.0000, -5.540521598208847E+06, -4.952704974484462E+08, -3.386507912532151E+06,
2460784.500000000, A.D. 2025-Apr-19 00:00:00.0000, 3.771049980621168E+06, -4.950002233712758E+08, -3.390991810895026E+06,
2460791.500000000, A.D. 2025-Apr-26 00:00:00.0000, 1.308112098944625E+07, -4.945319007643554E+08, -3.394118511605769E+06,
2460798.500000000, A.D. 2025-May-03 00:00:00.0000, 2.238595381722009E+07, -4.938653431172194E+08, -3.395884066197127E+06,
2460805.500000000, A.D. 2025-May-10 00:00:00.0000, 3.168179730826274E+07, -4.930004164744486E+08, -3.396284869215190E+06,
2460812.500000000, A.D. 2025-May-17 00:00:00.0000, 4.096488670935161E+07, -4.919370401714192E+08, -3.395317675594300E+06,
2460819.500000000, A.D. 2025-May-24 00:00:00.0000, 5.023144383329544E+07, -4.906751877732274E+08, -3.392979651262164E+06,
2460826.500000000, A.D. 2025-May-31 00:00:00.0000, 5.947767785825279E+07, -4.892148879051516E+08, -3.389268469910562E+06,
2460833.500000000, A.D. 2025-Jun-07 00:00:00.0000, 6.869978636372738E+07, -4.875562237693182E+08, -3.384182320739836E+06,
2460840.500000000, A.D. 2025-Jun-14 00:00:00.0000, 7.789395424082221E+07, -4.856993320139451E+08, -3.377719664876044E+06,
2460847.500000000, A.D. 2025-Jun-21 00:00:00.0000, 8.705635169599037E+07, -4.836444042263508E+08, -3.369879119518310E+06,
2460854.500000000, A.D. 2025-Jun-28 00:00:00.0000, 9.618313447889781E+07, -4.813916892861738E+08, -3.360659612550557E+06,
2460861.500000000, A.D. 2025-Jul-05 00:00:00.0000, 1.052704448192445E+08, -4.789414944238508E+08, -3.350060492147744E+06,
2460868.500000000, A.D. 2025-Jul-12 00:00:00.0000, 1.143144118827040E+08, -4.762941857901412E+08, -3.338081547794610E+06,
2460875.500000000, A.D. 2025-Jul-19 00:00:00.0000, 1.233111519370246E+08, -4.734501891113890E+08, -3.324723006960422E+06,
2460882.500000000, A.D. 2025-Jul-26 00:00:00.0000, 1.322567684401170E+08, -4.704099904864796E+08, -3.309985531191021E+06,
2460889.500000000, A.D. 2025-Aug-02 00:00:00.0000, 1.411473521177174E+08, -4.671741373032039E+08, -3.293870215749800E+06,
2460896.500000000, A.D. 2025-Aug-09 00:00:00.0000, 1.499789810565419E+08, -4.637432392880733E+08, -3.276378596065640E+06,
2460903.500000000, A.D. 2025-Aug-16 00:00:00.0000, 1.587477208926857E+08, -4.601179697525176E+08, -3.257512673100889E+06,
2460910.500000000, A.D. 2025-Aug-23 00:00:00.0000, 1.674496253907651E+08, -4.562990670192875E+08, -3.237274982930839E+06,
2460917.500000000, A.D. 2025-Aug-30 00:00:00.0000, 1.760807377452925E+08, -4.522873353157712E+08, -3.215668682067752E+06,
2460924.500000000, A.D. 2025-Sep-06 00:00:00.0000, 1.846370911881105E+08, -4.480836441344277E+08, -3.192697436396420E+06,
2460931.500000000, A.D. 2025-Sep-13 00:00:00.0000, 1.931147072327929E+08, -4.436889285423422E+08, -3.168365163158089E+06,
2460938.500000000, A.D. 2025-Sep-20 00:00:00.0000, 2.015095948317067E+08, -4.391041920826668E+08, -3.142676060438573E+06,
2460945.500000000, A.D. 2025-Sep-27 00:00:00.0000, 2.098177515075823E+08, -4.343305091557221E+08, -3.115634766775399E+06,
2460952.500000000, A.D. 2025-Oct-04 00:00:00.0000, 2.180351644460170E+08, -4.293690263404214E+08, -3.087246421629429E+06,
2460959.500000000, A.D. 2025-Oct-11 00:00:00.0000, 2.261578111781495E+08, -4.242209635984811E+08, -3.057516669372439E+06,
2460966.500000000, A.D. 2025-Oct-18 00:00:00.0000, 2.341816601401370E+08, -4.188876156349359E+08, -3.026451655175686E+06,
2460973.500000000, A.D. 2025-Oct-25 00:00:00.0000, 2.421026712519666E+08, -4.133703534028393E+08, -2.994058024719357E+06,
2460980.500000000, A.D. 2025-Nov-01 00:00:00.0000, 2.499167965579807E+08, -4.076706257352127E+08, -2.960342930184335E+06,
2460987.500000000, A.D. 2025-Nov-08 00:00:00.0000, 2.576199809667034E+08, -4.017899611336975E+08, -2.925314048466086E+06,
2460994.500000000, A.D. 2025-Nov-15 00:00:00.0000, 2.652081632413630E+08, -3.957299697702215E+08, -2.888979630206883E+06,
2461001.500000000, A.D. 2025-Nov-22 00:00:00.0000, 2.726772776480071E+08, -3.894923454797543E+08, -2.851348598793745E+06,
2461008.500000000, A.D. 2025-Nov-29 00:00:00.0000, 2.800232561123122E+08, -3.830788666081537E+08, -2.812430592624158E+06,
2461015.500000000, A.D. 2025-Dec-06 00:00:00.0000, 2.872420286111676E+08, -3.764913958500264E+08, -2.772235752986014E+06,
2461022.500000000, A.D. 2025-Dec-13 00:00:00.0000, 2.943295222355803E+08, -3.697318824441805E+08, -2.730774572978616E+06,
2461029.500000000, A.D. 2025-Dec-20 00:00:00.0000, 3.012816624219927E+08, -3.628023657000020E+08, -2.688058044454277E+06,
2461036.500000000, A.D. 2025-Dec-27 00:00:00.0000, 3.080943752831358E+08, -3.557049772609316E+08, -2.644097792752817E+06,
2461043.500000000, A.D. 2026-Jan-03 00:00:00.0000, 3.147635895838721E+08, -3.484419427183846E+08, -2.598906115626007E+06,
2461050.500000000, A.D. 2026-Jan-10 00:00:00.0000, 3.212852384759917E+08, -3.410155832523152E+08, -2.552495991783261E+06,
2461057.500000000, A.D. 2026-Jan-17 00:00:00.0000, 3.276552612282798E+08, -3.334283173867343E+08, -2.504881087734193E+06,
2461064.500000000, A.D. 2026-Jan-24 00:00:00.0000, 3.338696050329411E+08, -3.256826628335400E+08, -2.456075768080801E+06,
2461071.500000000, A.D. 2026-Jan-31 00:00:00.0000, 3.399242269144036E+08, -3.177812384269239E+08, -2.406095111943677E+06,
2461078.500000000, A.D. 2026-Feb-07 00:00:00.0000, 3.458150958046448E+08, -3.097267661990399E+08, -2.354954945873126E+06,
2461085.500000000, A.D. 2026-Feb-14 00:00:00.0000, 3.515381950420693E+08, -3.015220736045426E+08, -2.302671917765513E+06,
2461092.500000000, A.D. 2026-Feb-21 00:00:00.0000, 3.570895256877230E+08, -2.931700953100725E+08, -2.249263600075051E+06,
2461099.500000000, A.D. 2026-Feb-28 00:00:00.0000, 3.624651095812978E+08, -2.846738733908271E+08, -2.194748428259194E+06,
2461106.500000000, A.D. 2026-Mar-07 00:00:00.0000, 3.676609900838273E+08, -2.760365578809768E+08, -2.139145444749147E+06,
2461113.500000000, A.D. 2026-Mar-14 00:00:00.0000, 3.726732332859378E+08, -2.672614100055155E+08, -2.082474293588057E+06,
2461120.500000000, A.D. 2026-Mar-21 00:00:00.0000, 3.774979314680404E+08, -2.583518051889086E+08, -2.024755392316461E+06,
2461127.500000000, A.D. 2026-Mar-28 00:00:00.0000, 3.821312068072088E+08, -2.493112348053506E+08, -1.966010012520179E+06,
2461134.500000000, A.D. 2026-Apr-04 00:00:00.0000, 3.865692147308106E+08, -2.401433076293457E+08, -1.906260292351335E+06,
2461141.500000000, A.D. 2026-Apr-11 00:00:00.0000, 3.908081471943113E+08, -2.308517513388603E+08, -1.845529235327765E+06,
2461148.500000000, A.D. 2026-Apr-18 00:00:00.0000, 3.948442360460628E+08, -2.214404140694685E+08, -1.783840710317582E+06,
2461155.500000000, A.D. 2026-Apr-25 00:00:00.0000, 3.986737565284505E+08, -2.119132659961583E+08, -1.721219455446407E+06,
2461162.500000000, A.D. 2026-May-02 00:00:00.0000, 4.022930309493087E+08, -2.022744009634761E+08, -1.657691090923741E+06,
2461169.500000000, A.D. 2026-May-09 00:00:00.0000, 4.056984326505775E+08, -1.925280382206410E+08, -1.593282157475144E+06,
2461176.500000000, A.D. 2026-May-16 00:00:00.0000, 4.088863906538571E+08, -1.826785241123213E+08, -1.528020203655012E+06,
2461183.500000000, A.D. 2026-May-23 00:00:00.0000, 4.118533950373478E+08, -1.727303326908442E+08, -1.461933843049400E+06,
2461190.500000000, A.D. 2026-May-30 00:00:00.0000, 4.145960009694712E+08, -1.626880649196955E+08, -1.395052564330168E+06,
2461197.500000000, A.D. 2026-Jun-06 00:00:00.0000, 4.171108310831660E+08, -1.525564497318624E+08, -1.327406532566011E+06,
2461204.500000000, A.D. 2026-Jun-13 00:00:00.0000, 4.193945798552924E+08, -1.423403467315769E+08, -1.259026702006824E+06,
2461211.500000000, A.D. 2026-Jun-20 00:00:00.0000, 4.214440194892817E+08, -1.320447475994591E+08, -1.189944955415390E+06,
2461218.500000000, A.D. 2026-Jun-27 00:00:00.0000, 4.232560056023282E+08, -1.216747765274363E+08, -1.120194142050542E+06,
2461225.500000000, A.D. 2026-Jul-04 00:00:00.0000, 4.248274827157363E+08, -1.112356904447272E+08, -1.049808077767573E+06,
2461232.500000000, A.D. 2026-Jul-11 00:00:00.0000, 4.261554898000111E+08, -1.007328791526302E+08, -9.788215414714962E+05,
2461239.500000000, A.D. 2026-Jul-18 00:00:00.0000, 4.272371659642223E+08, -9.017186532769115E+07, -9.072702744751722E+05,
2461246.500000000, A.D. 2026-Jul-25 00:00:00.0000, 4.280697563101181E+08, -7.955830437548135E+07, -8.351909848844036E+05,
2461253.500000000, A.D. 2026-Aug-01 00:00:00.0000, 4.286506179941624E+08, -6.889798416796888E+07, -7.626213654362671E+05,
2461260.500000000, A.D. 2026-Aug-08 00:00:00.0000, 4.289772267056932E+08, -5.819682468516948E+07, -6.896001475487314E+05,
2461267.500000000, A.D. 2026-Aug-15 00:00:00.0000, 4.290471839672537E+08, -4.746087709440300E+07, -6.161671929699592E+05,
2461274.500000000, A.D. 2026-Aug-22 00:00:00.0000, 4.288582244873061E+08, -3.669632102791420E+07, -5.423634532498214E+05,
2461281.500000000, A.D. 2026-Aug-29 00:00:00.0000, 4.284082212696694E+08, -2.590946141520261E+07, -4.682306988650057E+05,
$$EOE